IRNSS-1A                
1 39199U 13034A   22115.99111685  .00000095  00000+0  00000+0 0  9995
2 39199  32.3139  86.1745 0017715 185.7898 353.8089  1.00273018 32195
GPS BIIF-5  (PRN 30)    
1 39533U 14008A   22116.48928857 -.00000036  00000+0  00000+0 0  9997
2 39533  53.6284 210.9792 0058396 206.7787 152.9378  2.00550745 59345
ASTRA 5B (EGNOS/PRN 123)
1 39617U 14011B   22116.84751576  .00000140  00000+0  00000+0 0  9991
2 39617   0.0562 310.4391 0002841  99.3835 141.5912  1.00273480 29508
COSMOS 2492 (754)       
1 39620U 14012A   22116.61489529 -.00000083  00000+0  00000+0 0  9994
2 39620  65.8433   4.8753 0014095 330.3006 161.3110  2.13103258 63009
IRNSS-1B                
1 39635U 14017A   22115.99111685  .00000067  00000+0  00000+0 0  9991
2 39635  28.8506 265.9802 0022154 179.1053 180.6735  1.00273825 29615
LUCH 5V (SDCM/PRN 141)  
1 39727U 14023A   22116.89076951 -.00000282  00000+0  00000+0 0  9996
2 39727   1.3801  74.4546 0003404   2.3507 193.5047  1.00272218 29194
GPS BIIF-6  (PRN 06)    
1 39741U 14026A   22116.27187074 -.00000108  00000+0  00000+0 0  9993
2 39741  56.5460  30.2611 0028034 306.9319  52.8177  2.00559667 58196
COSMOS 2500 (755)       
1 40001U 14032A   22117.03959147 -.00000083  00000+0  00000+0 0  9996
2 40001  65.7822   4.7257 0004218 203.2425 112.9854  2.13102544 61228
GPS BIIF-7  (PRN 09)    
1 40105U 14045A   22116.35997306  .00000065  00000+0  00000+0 0  9997
2 40105  54.6792 148.8834 0018722 109.8229 250.4475  2.00574397 55736
GSAT0201 (PRN E18)      
1 40128U 14050A   22114.30941376 -.00000080  00000+0  00000+0 0  9995
2 40128  50.3167 334.4384 1629815 122.0604 254.8197  1.85518835 50213
GSAT0202 (PRN E14)      
1 40129U 14050B   22116.18759662 -.00000086  00000+0  00000+0 0  9995
2 40129  50.3414 333.4225 1626838 122.9372 253.7743  1.85519541 52419
IRNSS-1C                
1 40269U 14061A   22116.85789472 -.00000171  00000+0  00000+0 0  9993
2 40269   2.8529 131.0701 0018954   5.4848 110.1366  1.00270098 27529
GPS BIIF-8  (PRN 03)    
1 40294U 14068A   22116.23656218  .00000014  00000+0  00000+0 0  9996
2 40294  55.7780  89.9966 0038937  52.1821 308.1544  2.00567847 54866
COSMOS 2501 (702K)      
1 40315U 14075A   22116.42131381 -.00000040  00000+0  00000+0 0  9998
2 40315  63.7010 242.9903 0017265 206.3507 163.2835  2.13101504 57620
GPS BIIF-9  (PRN 26)    
1 40534U 15013A   22116.37054914 -.00000046  00000+0  00000+0 0  9990
2 40534  53.7379 266.8512 0068568  20.6204 339.6180  2.00555565 51480
GSAT0203 (PRN E26)      
1 40544U 15017A   22115.82624804 -.00000109  00000+0  00000+0 0  9995
2 40544  56.7725  22.8069 0002461 293.3440  66.6405  1.70475541 43408
GSAT0204 (PRN E22)      
1 40545U 15017B   22116.07892030 -.00000110  00000+0  00000+0 0  9994
2 40545  56.7784  22.8124 0001672 278.4358  81.5558  1.70475438  6455
IRNSS-1D                
1 40547U 15018A   22116.32757979 -.00000317  00000+0  00000+0 0  9996
2 40547  28.6783 266.0112 0022577 179.0526 358.9379  1.00270198 25826
BEIDOU 17 (C31)         
1 40549U 15019A   22116.61331903 -.00000148  00000+0  00000+0 0  9998
2 40549  51.9728 313.3544 0036178 187.6718  26.5022  1.00253401 25912
GPS BIIF-10 (PRN 08)    
1 40730U 15033A   22116.53464559 -.00000063  00000+0  00000+0 0  9997
2 40730  55.2314 328.7677 0074131   7.1888 352.9524  2.00554574 49650
BEIDOU 18 (C57)         
1 40748U 15037A   22116.38605273 -.00000100  00000+0  00000+0 0  9995
2 40748  55.8797 353.5045 0005676  21.4336 154.0153  1.86233372 45940
BEIDOU 19 (C58)         
1 40749U 15037B   22117.13945230 -.00000101  00000+0  00000+0 0  9991
2 40749  55.8825 353.4691 0005931 344.5294 110.7820  1.86232311 45958
GSAT0205 (PRN E24)      
1 40889U 15045A   22115.84597383 -.00000033  00000+0  00000+0 0  9997
2 40889  55.6590 263.4143 0004987  29.3884 330.5914  1.70473767 41211
GSAT0206 (PRN E30)      
1 40890U 15045B   22116.06674893 -.00000035  00000+0  00000+0 0  9998
2 40890  55.6581 263.4040 0003100  26.2110 333.7553  1.70473747 41248
BEIDOU 20 (C18)         
1 40938U 15053A   22116.49105859 -.00000142  00000+0  00000+0 0  9997
2 40938  51.5824 276.4652 0045380 192.9350  15.9349  1.00258230 24189
GPS BIIF-11 (PRN 10)    
1 41019U 15062A   22116.58142430  .00000011  00000+0  00000+0 0  9998
2 41019  55.7675  89.8246 0077295 218.5656 140.8649  2.00562817 47499
GSAT-15 (GAGAN/PRN 139) 
1 41028U 15065A   22116.89076951 -.00000272  00000+0  00000+0 0  9999
2 41028   0.0690  94.5880 0003152 343.9548 190.4737  1.00270070 23691
GSAT0209 (PRN E09)      
1 41174U 15079A   22116.24162409  .00000062  00000+0  00000+0 0  9995
2 41174  55.1378 142.8361 0005376 300.7843  59.2291  1.70474725 38982
GSAT0208 (PRN E08)      
1 41175U 15079B   22115.28790086  .00000058  00000+0  00000+0 0  9992
2 41175  55.1358 142.8611 0004642 299.2282  60.7887  1.70474726 39545
IRNSS-1E                
1 41241U 16003A   22116.32757979 -.00000286  00000+0  00000+0 0  9998
2 41241  29.8655  85.4200 0017730 185.8094 172.7908  1.00270286 22904
GPS BIIF-12 (PRN 32)    
1 41328U 16007A   22116.67555581  .00000067  00000+0  00000+0 0  9997
2 41328  54.8982 149.5301 0060884 229.8893 129.6446  2.00572943 45504
COSMOS 2514 (751)       
1 41330U 16008A   22116.85715241 -.00000083  00000+0  00000+0 0  9991
2 41330  65.5825   4.4366 0007796 211.1020 148.8963  2.13102766 48394
IRNSS-1F                
1 41384U 16015A   22116.84769020  .00000148  00000+0  00000+0 0  9992
2 41384   2.1178 160.5780 0020433 186.6567 205.1375  1.00271238 22505
BEIDOU IGSO-6 (C13)     
1 41434U 16021A   22116.78829465 -.00000169  00000+0  00000+0 0  9992
2 41434  58.0294  53.3717 0044894 219.9902 318.7559  1.00292313 22310
IRNSS-1G                
1 41469U 16027A   22116.93883315 -.00000346  00000+0  00000+0 0  9994
2 41469   2.0573 163.7006 0006806 279.1596 239.4997  1.00267432 22007
GSAT0211 (PRN E02)      
1 41549U 16030A   22115.99394509 -.00000034  00000+0  00000+0 0  9998
2 41549  55.8040 263.3335 0003192 349.7619  10.1826  1.70475205 36857
GSAT0210 (PRN E01)      
1 41550U 16030B   22115.70002311 -.00000032  00000+0  00000+0 0  9994
2 41550  55.8037 263.3430 0001745 311.7914  48.1462  1.70475405 36860
COSMOS 2516 (753)       
1 41554U 16032A   22116.61199839 -.00000041  00000+0  00000+0 0  9993
2 41554  63.9283 243.2464 0013541 213.3030 220.2931  2.13106003 45995
BEIDOU-2 G7 (C03)       
1 41586U 16037A   22116.86330225 -.00000367  00000+0  00000+0 0  9997
2 41586   1.8657  69.0577 0009220   2.0610 205.0573  1.00270709 21628
E 117 W B (WAAS/PRN 131)
1 41589U 16038B   22116.62244631 -.00000026  00000+0  00000+0 0  9992
2 41589   0.0090 101.2008 0000117 168.7821  51.6981  1.00270612 21509
GSAT0207 (PRN E07)      
1 41859U 16069A   22115.36116072  .00000057  00000+0  00000+0 0  9996
2 41859  54.7974 143.0548 0005628 289.8530  70.1500  1.70473356 33810
GSAT0212 (PRN E03)      
1 41860U 16069B   22116.38774387  .00000062  00000+0  00000+0 0  9996
2 41860  54.7954 143.0240 0004090 305.6139  54.4148  1.70473317 33868
GSAT0213 (PRN E04)      
1 41861U 16069C   22116.16661273  .00000061  00000+0  00000+0 0  9991
2 41861  54.7978 143.0352 0005429 272.7033  87.3008  1.70473432 33726
GSAT0214 (PRN E05)      
1 41862U 16069D   22116.31368077  .00000061  00000+0  00000+0 0  9995
2 41862  54.7962 143.0256 0004504 275.6752  84.3401  1.70473505 33855
SES-15 (WAAS/PRN 133)   
1 42709U 17026A   22116.67203287  .00000046  00000+0  00000+0 0  9993
2 42709   0.0273  59.1606 0000890 315.2267 313.0325  1.00265890 19015
QZS-2 (QZSS/PRN 184)    
1 42738U 17028A   22116.73452045 -.00000259  00000+0  00000+0 0  9999
2 42738  41.8601 264.8960 0741517 270.6548  81.6010  1.00252209 17980
QZS-3 (QZSS/PRN 189)    
1 42917U 17048A   22116.86661654 -.00000362  00000+0  00000+0 0  9997
2 42917   0.0607 155.6235 0002217 257.3826 240.7500  1.00277007 17099
COSMOS 2522 (752)       
1 42939U 17055A   22116.66688144 -.00000041  00000+0  00000+0 0  9994
2 42939  64.1610 243.6242 0006233 238.4336  94.9441  2.13101907 35747
QZS-4 (QZSS/PRN 185)    
1 42965U 17062A   22116.47208757 -.00000353  00000+0  00000+0 0  9994
2 42965  40.7789   2.7778 0747243 270.5980 249.7645  1.00266739 16640
BEIDOU-3 M1 (C19)       
1 43001U 17069A   22116.71353765  .00000064  00000+0  00000+0 0  9998
2 43001  55.5238 113.4183 0012510 290.6893 187.5241  1.86231709 30430
BEIDOU-3 M2 (C20)       
1 43002U 17069B   22116.11870976  .00000066  00000+0  00000+0 0  9993
2 43002  55.5238 113.4739 0010640 308.2643 174.2389  1.86231083 30418
GSAT0215 (PRN E21)      
1 43055U 17079A   22115.63117853 -.00000031  00000+0  00000+0 0  9999
2 43055  55.7798 263.1767 0001121 311.1166  48.8265  1.70474451 27180
GSAT0216 (PRN E25)      
1 43056U 17079B   22116.51001627 -.00000038  00000+0  00000+0 0  9996
2 43056  55.7795 263.1522 0002763 293.0888  66.8304  1.70474577 27216
GSAT0217 (PRN E27)      
1 43057U 17079C   22114.38392738 -.00000020  00000+0  00000+0 0  9997
2 43057  55.7783 263.2104 0002689 316.9078  43.0295  1.70474431 27163
GSAT0218 (PRN E31)      
1 43058U 17079D   22116.36367360 -.00000037  00000+0  00000+0 0  9999
2 43058  55.7780 263.1535 0003119 285.1821  74.7324  1.70474480 27225
BEIDOU-3 M3 (C27)       
1 43107U 18003A   22116.70820536 -.00000103  00000+0  00000+0 0  9993
2 43107  55.3292 354.4351 0005753  48.1397 275.6615  1.86232541 29184
BEIDOU-3 M4 (C28)       
1 43108U 18003B   22116.64476122 -.00000103  00000+0  00000+0 0  9995
2 43108  55.3220 354.4264 0002002 275.5624  49.8779  1.86230728 29189
BEIDOU-3 M5 (C21)       
1 43207U 18018A   22116.60492023  .00000064  00000+0  00000+0 0  9990
2 43207  55.4827 113.5381 0007579 322.9190  37.0441  1.86231445 28570
BEIDOU-3 M6 (C22)       
1 43208U 18018B   22116.13459602  .00000066  00000+0  00000+0 0  9997
2 43208  55.4818 113.5586 0010458 299.5322  60.3797  1.86231472 28566
